[
    {
        "Altitude(m)": 556874.5306586899,
        "Argument of Periapsis(deg)": 0.0,
        "Eccentricity": 0.0,
        "Inclination(deg)": 53.0,
        "Latitude(deg)": -13.154032530621347,
        "Longitude(deg)": 25.11774686776807,
        "Mean Anomaly(deg)": -163.63640000000007,
        "RAAN(deg)": 295.00000000000006,
        "Satellite Name": "Starlink Shell 1 1310",
        "Satellite Number": 1310,
        "Semi-Major Axis(m)": 6931778.249405717,
        "Time(s)": 0
    },
    {
        "Altitude(m)": 557007.6205491938,
        "Argument of Periapsis(deg)": 0.00034857847951123687,
        "Eccentricity": 0.0,
        "Inclination(deg)": 53.0,
        "Latitude(deg)": -13.649283535542553,
        "Longitude(deg)": 25.474086899475203,
        "Mean Anomaly(deg)": -163.0095687964433,
        "RAAN(deg)": 294.99948122992254,
        "Satellite Name": "Starlink Shell 1 1310",
        "Satellite Number": 1310,
        "Semi-Major Axis(m)": 6931778.249405717,
        "Time(s)": 10
    },
    {
        "Altitude(m)": 557142.8052509482,
        "Argument of Periapsis(deg)": 0.0006971569590224737,
        "Eccentricity": 0.0,
        "Inclination(deg)": 53.0,
        "Latitude(deg)": -14.143861886882458,
        "Longitude(deg)": 25.83207543239787,
        "Mean Anomaly(deg)": -162.38273759288657,
        "RAAN(deg)": 294.9989624598451,
        "Satellite Name": "Starlink Shell 1 1310",
        "Satellite Number": 1310,
        "Semi-Major Axis(m)": 6931778.249405717,
        "Time(s)": 20
    },
    {
        "Altitude(m)": 557280.0419980409,
        "Argument of Periapsis(deg)": 0.0010457354385337105,
        "Eccentricity": 0.0,
        "Inclination(deg)": 53.0,
        "Latitude(deg)": -14.637740029929576,
        "Longitude(deg)": 26.191779681817675,
        "Mean Anomaly(deg)": -161.75590638932988,
        "RAAN(deg)": 294.9984436897676,
        "Satellite Name": "Starlink Shell 1 1310",
        "Satellite Number": 1310,
        "Semi-Major Axis(m)": 6931778.249405717,
        "Time(s)": 30
    },
    {
        "Altitude(m)": 557419.2869631922,
        "Argument of Periapsis(deg)": 0.0013943139180449475,
        "Eccentricity": 0.0,
        "Inclination(deg)": 53.0,
        "Latitude(deg)": -15.130890041916683,
        "Longitude(deg)": 26.553268093136502,
        "Mean Anomaly(deg)": -161.1290751857732,
        "RAAN(deg)": 294.99792491969015,
        "Satellite Name": "Starlink Shell 1 1310",
        "Satellite Number": 1310,
        "Semi-Major Axis(m)": 6931778.249405717,
        "Time(s)": 40
    },
    {
        "Altitude(m)": 557560.4952768628,
        "Argument of Periapsis(deg)": 0.0017428923975561844,
        "Eccentricity": 0.0,
        "Inclination(deg)": 53.0,
        "Latitude(deg)": -15.623283615639473,
        "Longitude(deg)": 26.91660935999237,
        "Mean Anomaly(deg)": -160.50224398221638,
        "RAAN(deg)": 294.9974061496127,
        "Satellite Name": "Starlink Shell 1 1310",
        "Satellite Number": 1310,
        "Semi-Major Axis(m)": 6931778.249405717,
        "Time(s)": 50
    },
    {
        "Altitude(m)": 557703.6210468125,
        "Argument of Periapsis(deg)": 0.002091470877067421,
        "Eccentricity": 0.0,
        "Inclination(deg)": 53.0,
        "Latitude(deg)": -16.114892042729466,
        "Longitude(deg)": 27.281872955220447,
        "Mean Anomaly(deg)": -159.8754127786597,
        "RAAN(deg)": 294.99688737953517,
        "Satellite Name": "Starlink Shell 1 1310",
        "Satellite Number": 1310,
        "Semi-Major Axis(m)": 6931778.249405717,
        "Time(s)": 60
    },
    {
        "Altitude(m)": 557848.6173782004,
        "Argument of Periapsis(deg)": 0.0024400493565786582,
        "Eccentricity": 0.0,
        "Inclination(deg)": 53.0,
        "Latitude(deg)": -16.605686196572563,
        "Longitude(deg)": 27.64912966176416,
        "Mean Anomaly(deg)": -159.24858157510303,
        "RAAN(deg)": 294.9963686094577,
        "Satellite Name": "Starlink Shell 1 1310",
        "Satellite Number": 1310,
        "Semi-Major Axis(m)": 6931778.249405717,
        "Time(s)": 70
    },
    {
        "Altitude(m)": 557995.4363941485,
        "Argument of Periapsis(deg)": 0.002788627836089895,
        "Eccentricity": 0.0,
        "Inclination(deg)": 53.0,
        "Latitude(deg)": -17.095636514862594,
        "Longitude(deg)": 28.018450590636085,
        "Mean Anomaly(deg)": -158.62175037154628,
        "RAAN(deg)": 294.99584983938024,
        "Satellite Name": "Starlink Shell 1 1310",
        "Satellite Number": 1310,
        "Semi-Major Axis(m)": 6931778.249405717,
        "Time(s)": 80
    },
    {
        "Altitude(m)": 558144.0292567956,
        "Argument of Periapsis(deg)": 0.0031372063156011316,
        "Eccentricity": 0.0,
        "Inclination(deg)": 53.0,
        "Latitude(deg)": -17.5847129817726,
        "Longitude(deg)": 28.389907711645332,
        "Mean Anomaly(deg)": -157.9949191679895,
        "RAAN(deg)": 294.9953310693028,
        "Satellite Name": "Starlink Shell 1 1310",
        "Satellite Number": 1310,
        "Semi-Major Axis(m)": 6931778.249405717,
        "Time(s)": 90
    },
    {
        "Altitude(m)": 558294.3461888395,
        "Argument of Periapsis(deg)": 0.0034857847951123688,
        "Eccentricity": 0.0,
        "Inclination(deg)": 53.0,
        "Latitude(deg)": -18.072885109735232,
        "Longitude(deg)": 28.76357438398724,
        "Mean Anomaly(deg)": -157.36808796443285,
        "RAAN(deg)": 294.99481229922526,
        "Satellite Name": "Starlink Shell 1 1310",
        "Satellite Number": 1310,
        "Semi-Major Axis(m)": 6931778.249405717,
        "Time(s)": 100
    },
    {
        "Altitude(m)": 558446.3364954825,
        "Argument of Periapsis(deg)": 0.003834363274623606,
        "Eccentricity": 0.0,
        "Inclination(deg)": 53.0,
        "Latitude(deg)": -18.56012192082311,
        "Longitude(deg)": 29.139524373785175,
        "Mean Anomaly(deg)": -156.74125676087613,
        "RAAN(deg)": 294.99429352914785,
        "Satellite Name": "Starlink Shell 1 1310",
        "Satellite Number": 1310,
        "Semi-Major Axis(m)": 6931778.249405717,
        "Time(s)": 110
    },
    {
        "Altitude(m)": 558599.9485868812,
        "Argument of Periapsis(deg)": 0.004182941754134842,
        "Eccentricity": 0.0,
        "Inclination(deg)": 53.0,
        "Latitude(deg)": -19.04639192771062,
        "Longitude(deg)": 29.517832384289335,
        "Mean Anomaly(deg)": -156.11442555731946,
        "RAAN(deg)": 294.9937747590704,
        "Satellite Name": "Starlink Shell 1 1310",
        "Satellite Number": 1310,
        "Semi-Major Axis(m)": 6931778.249405717,
        "Time(s)": 120
    },
    {
        "Altitude(m)": 558755.1300009969,
        "Argument of Periapsis(deg)": 0.004531520233646079,
        "Eccentricity": 0.0,
        "Inclination(deg)": 53.0,
        "Latitude(deg)": -19.531663114211096,
        "Longitude(deg)": 29.898574585817535,
        "Mean Anomaly(deg)": -155.48759435376266,
        "RAAN(deg)": 294.99325598899287,
        "Satellite Name": "Starlink Shell 1 1310",
        "Satellite Number": 1310,
        "Semi-Major Axis(m)": 6931778.249405717,
        "Time(s)": 130
    },
    {
        "Altitude(m)": 558911.8274268658,
        "Argument of Periapsis(deg)": 0.0048800987131573164,
        "Eccentricity": 0.0,
        "Inclination(deg)": 53.0,
        "Latitude(deg)": -20.01590291537831,
        "Longitude(deg)": 30.28182763251313,
        "Mean Anomaly(deg)": -154.86076315020603,
        "RAAN(deg)": 294.9927372189154,
        "Satellite Name": "Starlink Shell 1 1310",
        "Satellite Number": 1310,
        "Semi-Major Axis(m)": 6931778.249405717,
        "Time(s)": 140
    },
    {
        "Altitude(m)": 559069.9867283022,
        "Argument of Periapsis(deg)": 0.005228677192668553,
        "Eccentricity": 0.0,
        "Inclination(deg)": 53.0,
        "Latitude(deg)": -20.49907819715923,
        "Longitude(deg)": 30.667669191615644,
        "Mean Anomaly(deg)": -154.23393194664928,
        "RAAN(deg)": 294.9922184488379,
        "Satellite Name": "Starlink Shell 1 1310",
        "Satellite Number": 1310,
        "Semi-Major Axis(m)": 6931778.249405717,
        "Time(s)": 150
    },
    {
        "Altitude(m)": 559229.5529679653,
        "Argument of Periapsis(deg)": 0.00557725567217979,
        "Eccentricity": 0.0,
        "Inclination(deg)": 53.0,
        "Latitude(deg)": -20.98115523558698,
        "Longitude(deg)": 31.056178472308556,
        "Mean Anomaly(deg)": -153.60710074309262,
        "RAAN(deg)": 294.9916996787605,
        "Satellite Name": "Starlink Shell 1 1310",
        "Satellite Number": 1310,
        "Semi-Major Axis(m)": 6931778.249405717,
        "Time(s)": 160
    },
    {
        "Altitude(m)": 559390.4704318381,
        "Argument of Periapsis(deg)": 0.0059258341516910265,
        "Eccentricity": 0.0,
        "Inclination(deg)": 53.0,
        "Latitude(deg)": -21.46209969551033,
        "Longitude(deg)": 31.447435241210144,
        "Mean Anomaly(deg)": -152.98026953953587,
        "RAAN(deg)": 294.991180908683,
        "Satellite Name": "Starlink Shell 1 1310",
        "Satellite Number": 1310,
        "Semi-Major Axis(m)": 6931778.249405717,
        "Time(s)": 170
    },
    {
        "Altitude(m)": 559552.6826540674,
        "Argument of Periapsis(deg)": 0.006274412631202263,
        "Eccentricity": 0.0,
        "Inclination(deg)": 53.0,
        "Latitude(deg)": -21.941876608842637,
        "Longitude(deg)": 31.841520350180645,
        "Mean Anomaly(deg)": -152.35343833597918,
        "RAAN(deg)": 294.9906621386055,
        "Satellite Name": "Starlink Shell 1 1310",
        "Satellite Number": 1310,
        "Semi-Major Axis(m)": 6931778.249405717,
        "Time(s)": 180
    }
]